[{"OBJECT_NAME":"STARLINK-4334","OBJECT_ID":"2022-105T","EPOCH":"2026-03-09T15:00:13.080096","MEAN_MOTION":15.05652455,"ECCENTRICITY":0.0002338,"INCLINATION":97.6033,"RA_OF_ASC_NODE":311.1978,"ARG_OF_PERICENTER":71.2278,"MEAN_ANOMALY":288.9203,"EPHEMERIS_TYPE":0,"CLASSIFICATION_TYPE":"U","NORAD_CAT_ID":53665,"ELEMENT_SET_NO":999,"REV_AT_EPOCH":19329,"BSTAR":7.4915e-6,"MEAN_MOTION_DOT":4.7e-7,"MEAN_MOTION_DDOT":0},{"OBJECT_NAME":"THOR ABLESTAR DEB","OBJECT_ID":"1961-015EX","EPOCH":"2026-03-09T22:58:31.837152","MEAN_MOTION":15.04262729,"ECCENTRICITY":0.00191468,"INCLINATION":67.4961,"RA_OF_ASC_NODE":12.7011,"ARG_OF_PERICENTER":32.2919,"MEAN_ANOMALY":327.9391,"EPHEMERIS_TYPE":0,"CLASSIFICATION_TYPE":"U","NORAD_CAT_ID":461,"ELEMENT_SET_NO":999,"REV_AT_EPOCH":37086,"BSTAR":0.0020469071,"MEAN_MOTION_DOT":0.00028661,"MEAN_MOTION_DDOT":0}]
